ESA XMM
1 25989U 99066A   23210.35941833  .00000197  00000-0  00000+0 0  9993
2 25989  68.9499 297.7940 5497558  81.7865   0.2967  0.50135878 32080
